STARLINK-2164
1 27750C 21017AE  21325.16388509 -.00005264  00000-0 -35261-3 0  3259
2 27750  53.0564  47.4964 0001202  76.5463 351.5018 15.06413080    10
